FALCON 9 DEB            
1 52886U 22062BJ  22184.89619416  .01667769  11914-4  59295-3 0  9997
2 52886  53.2159 321.1571 0027877  83.2997 277.1216 16.23168976  2620
SARAH-1                 
1 52887U 22063A   22174.76914807  .00057931  00000+0  16917-1 0  9990
2 52887  98.3930 181.8659 0001741 114.3380 245.7128 14.43706701  1277
GLOBALSTAR FM15         
1 52888U 22064A   22184.67142812 -.00000128  00000+0  00000+0 0  9993
2 52888  51.9752 179.7650 0009556 352.3109   7.7645 13.37539544  1908
2022-065A               
1 52894U 22065A   22184.76233339 -.00004034  00000+0 -87858-3 0  9997
2 52894  98.0220 335.6176 0009229 194.2385 165.8534 14.57488715  1829
2022-065B               
1 52895U 22065B   22184.68861586  .00000103  00000+0  31894-4 0  9991
2 52895  98.0221 335.5592 0007597 211.0190 149.0578 14.58136103  1813
KSLV-II R/B             
1 52896U 22065C   22184.92546895  .00000990  00000+0  20430-3 0  9999
2 52896  98.0704 335.9414 0005465  68.3996 291.7788 14.62506900  1848
STEP CUBE LAB-II        
1 52897U 22065D   22184.82868562  .00000295  00000+0  73394-4 0  9993
2 52897  98.0199 335.6862 0008519 215.6073 144.4561 14.58250962   657
RANDEV                  
1 52898U 22065E   22184.82956493  .00001111  00000+0  24976-3 0  9994
2 52898  98.0239 335.6855 0007967 217.4584 142.6061 14.58321609   379
SNUGLITE-II             
1 52899U 22065F   22184.89928290 -.00012800  00000+0 -27619-2 0  9991
2 52899  98.0220 335.7549 0006925 218.7300 141.3094 14.58332214    99
TIANXING-1              
1 52901U 22066A   22184.93674859  .00133316  87398-5  32374-3 0  9990
2 52901  96.7427 229.4867 0011849 247.4248 235.6272 15.96199258  1885
CMS-02 (GSAT 24)        
1 52903U 22067A   22183.92132608 -.00000281  00000+0  00000+0 0  9993
2 52903   0.0944 268.4170 0014979 328.4212 107.0950  1.00555562   133
MEASAT 3D               
1 52904U 22067B   22184.81116323 -.00000233  00000+0  00000+0 0  9996
2 52904   0.0911 281.5295 0001203 115.9037 267.8611  1.00274885   171
ARIANE 5 DEB [SYLDA]    
1 52905U 22067C   22184.18474424  .00013103  00000+0  46280-2 0  9998
2 52905   6.0381  61.3740 7273962 186.4451 152.2124  2.28430843   233
ARIANE 5 R/B            
1 52906U 22067D   22184.59415442  .00001891  00000+0  52699-3 0  9992
2 52906   6.1977  59.2682 7278188 188.5644 143.4236  2.28671787   251
YAOGAN-35 D             
1 52907U 22068A   22184.81555556  .00005398  00000+0  22248-3 0  9993
2 52907  34.9955 214.8267 0005797 335.8199 352.6878 15.23435012  1620
YAOGAN-35 E             
1 52908U 22068B   22184.58055238  .00020773  00000+0  83897-3 0  9991
2 52908  34.9970 216.2590 0011748  36.0277  98.9782 15.23825685  1569
YAOGAN-35 F             
1 52909U 22068C   22184.85466954 -.00024318  00000+0 -98243-3 0  9995
2 52909  34.9956 214.6122 0007691 354.7627 179.2533 15.23942541  1645
CZ-2D R/B               
1 52910U 22068D   22184.49320093  .00010981  00000+0  43572-3 0  9994
2 52910  34.9982 216.8541 0008949 358.3314   1.7373 15.24543579  1555
CZ-2D DEB               
1 52911U 22068E   22184.42584084  .00007590  00000+0  29961-3 0  9998
2 52911  34.9995 217.2425 0009808   5.4063 354.6728 15.24776973  1541
GAOFEN 12-3             
1 52912U 22069A   22184.97632086  .00000759  00000+0  10678-3 0  9991
2 52912  97.9845  72.6253 0001194 114.2878 245.8459 14.80223050   949
CZ-4C R/B               
1 52913U 22069B   22184.74270392  .00001321  00000+0  86888-4 0  9998
2 52913  97.9729  72.6083 0074005  25.6407 334.8458 15.07287602   914
CAPSTONE & PHOTON R/B   
1 52914U 22070A   22184.14236111 -.00000375  00000+0  00000+0 0  9992
2 52914  39.0806 321.8334 8405410 344.4990 285.0037  1.02266752   396
NACHOS                  
1 52917U 22015D   22183.93580469  .00016310  00000+0  25117-3 0  9993
2 52917  51.6452 258.4544 0007988 330.6503 200.2494 15.54315374   642
SES-22                  
1 52933U 22071A   22182.37500000 -.00000088  00000+0  00000+0 0  9999
2 52933   6.2834  66.0781 4538124 179.7720  64.1657  1.76696437    14
FALCON 9 R/B            
1 52934U 22071B   22184.60394432  .00000042  00000+0  11213-3 0  9999
2 52934  16.5501  65.4187 7253003 181.6237 172.9065  2.28744947    87
2022-072A               
1 52935U 22072A   22184.09816097  .00000713  00000+0 -85989-7 0  9991
2 52935   9.9937  57.6569 0006702 343.9609  16.0415 14.99626045   362
2022-072B               
1 52936U 22075B   22184.96221255  .00002267  00000+0  12154-3 0  9992
2 52936   9.9918  51.3231 0007435   2.1213 357.9006 14.99870599   502
2022-072C               
1 52937U 22072C   22184.96144582  .00000953  00000+0  18048-4 0  9996
2 52937   9.9934  51.3315 0008705   9.0956 350.9438 15.00201788   520
2022-072D               
1 52938U 22072D   22182.10135734  .00002312  00000+0  10000-3 0  9990
2 52938   9.8997  72.2486 0024259 193.5521 166.3691 15.06369760    92
2022-072E               
1 52939U 22072E   22184.88814155  .00005257  00000+0  31580-3 0  9996
2 52939   9.9531  51.6883 0036508 358.9608   1.0533 15.03353877   519
2022-074A               
1 52944U 22074A   22184.90961823 -.00000285  00000+0  00000+0 0  9998
2 52944  44.9944 108.9398 0003989 274.4771 118.2634 15.23194076   248
2022-074B               
1 52945U 22074B   22184.91873090 -.00000285  00000+0  00000+0 0  9998
2 52945  44.9942 108.8893 0004150 262.9772 180.4198 15.23306126   247
2022-074C               
1 52946U 22074C   22184.90649392 -.00000350  00000+0  00000+0 0  9997
2 52946  44.9922 108.7984 0046940 218.3275 221.1204 15.34449021   236
2022-074D               
1 52947U 22074D   22184.91762096 -.00000286  00000+0  00000+0 0  9994
2 52947  44.9850 108.8892 0003963 234.4114 205.6419 15.23783491   241
2022-074E               
1 52948U 22074E   22184.91745918 -.00000288  00000+0  00000+0 0  9991
2 52948  44.9831 108.8875 0005048 214.3570 227.5720 15.24264506   241
2022-074F               
1 52949U 22074F   22184.90951931 -.00000286  00000+0  00000+0 0  9993
2 52949  44.9909 108.9365 0004868 256.6497 136.8617 15.23429805   240
2022-074G               
1 52950U 22074G   22184.91806025 -.00000286  00000+0  00000+0 0  9999
2 52950  45.0005 108.8865 0004022 261.4228 178.7951 15.23396033   245
2022-074H               
1 52951U 22074H   22184.90948205 -.00000285  00000+0  00000+0 0  9995
2 52951  44.9863 108.9433 0004066 261.1996 131.8084 15.23375052   240
